{
  "norad_id": 59469,
  "name": "STARLINK-31381",
  "history": [
    {
      "epoch": "2026-03-28T20:40:33.585312Z",
      "apogee_km": 483.824876909227,
      "perigee_km": 482.2632720966694,
      "latitude_deg": 3.6671065725054137e-06,
      "longitude_deg": 146.47199621929443,
      "height_km": 482.73902463842,
      "semi_major_axis_km": 6861.181074502948,
      "eccentricity": 0.0001138,
      "inclination_deg": 43.0033,
      "raan_deg": 282.8878,
      "arg_perigee_deg": 276.0212,
      "mean_anomaly_deg": 84.051,
      "mean_motion_rev_day": 15.27581677
    }
  ]
}